{
  "type": "FeatureCollection",
  "features": [
    {
      "type": "Feature",
      "properties": {
        "norad_id": 36371,
        "name": "COSMOS 2251 DEB",
        "group": "cosmos-2251-debris",
        "lat": -30.149494286323932,
        "lon": 157.4683970020732,
        "alt_km": 668.983091308317,
        "timestamp": "2025-12-09T21:34:11.806811+00:00",
        "meta_object_name": "COSMOS 2251 DEB",
        "meta_object_id": "1993-036AYY",
        "meta_epoch": "2025-12-07T19:05:47.723136",
        "meta_mean_motion": 14.70448722,
        "meta_eccentricity": 0.00102244,
        "meta_inclination": 74.0118,
        "meta_ra_of_asc_node": 171.1395,
        "meta_arg_of_pericenter": 209.6534,
        "meta_mean_anomaly": 150.4058,
        "meta_ephemeris_type": 0,
        "meta_classification_type": "U",
        "meta_norad_cat_id": 36371,
        "meta_element_set_no": 999,
        "meta_rev_at_epoch": 71372,
        "meta_bstar": 0.0029870702,
        "meta_mean_motion_dot": 0.00018131,
        "meta_mean_motion_ddot": 0,
        "tle_line1": "1 36371U 93036AYY 25341.79569124  .00018131  00000+0  29871-2 0  9991",
        "tle_line2": "2 36371  74.0118 171.1395 0010224 209.6534 150.4058 14.70448722713720"
      },
      "geometry": {
        "type": "Point",
        "coordinates": [
          157.4683970020732,
          -30.149494286323932
        ]
      }
    },
    {
      "type": "Feature",
      "properties": {
        "norad_id": 36379,
        "name": "COSMOS 2251 DEB",
        "group": "cosmos-2251-debris",
        "lat": 53.14686350404885,
        "lon": 109.55971257897475,
        "alt_km": 742.2902732010552,
        "timestamp": "2025-12-09T21:34:11.806821+00:00",
        "meta_object_name": "COSMOS 2251 DEB",
        "meta_object_id": "1993-036AZG",
        "meta_epoch": "2025-12-08T04:58:44.675328",
        "meta_mean_motion": 14.36066652,
        "meta_eccentricity": 0.00445661,
        "meta_inclination": 74.0122,
        "meta_ra_of_asc_node": 315.1569,
        "meta_arg_of_pericenter": 85.444,
        "meta_mean_anomaly": 297.6264,
        "meta_ephemeris_type": 0,
        "meta_classification_type": "U",
        "meta_norad_cat_id": 36379,
        "meta_element_set_no": 999,
        "meta_rev_at_epoch": 64763,
        "meta_bstar": 0.0005365522,
        "meta_mean_motion_dot": 1.553e-05,
        "meta_mean_motion_ddot": 0,
        "tle_line1": "1 36379U 93036AZG 25342.20746152  .00001553  00000+0  53655-3 0  9992",
        "tle_line2": "2 36379  74.0122 315.1569 0044566  85.4440 297.6264 14.36066652647637"
      },
      "geometry": {
        "type": "Point",
        "coordinates": [
          109.55971257897475,
          53.14686350404885
        ]
      }
    },
    {
      "type": "Feature",
      "properties": {
        "norad_id": 36385,
        "name": "COSMOS 2251 DEB",
        "group": "cosmos-2251-debris",
        "lat": 59.385271253968845,
        "lon": -170.83694988255596,
        "alt_km": 643.0587615216036,
        "timestamp": "2025-12-09T21:34:11.806832+00:00",
        "meta_object_name": "COSMOS 2251 DEB",
        "meta_object_id": "1993-036AZN",
        "meta_epoch": "2025-12-09T11:30:11.459520",
        "meta_mean_motion": 14.7246814,
        "meta_eccentricity": 0.0141254,
        "meta_inclination": 73.9696,
        "meta_ra_of_asc_node": 160.9132,
        "meta_arg_of_pericenter": 336.0399,
        "meta_mean_anomaly": 23.4239,
        "meta_ephemeris_type": 0,
        "meta_classification_type": "U",
        "meta_norad_cat_id": 36385,
        "meta_element_set_no": 999,
        "meta_rev_at_epoch": 85054,
        "meta_bstar": 0.0016661542,
        "meta_mean_motion_dot": 0.00012368,
        "meta_mean_motion_ddot": 0,
        "tle_line1": "1 36385U 93036AZN 25343.47929930  .00012368  00000+0  16662-2 0  9998",
        "tle_line2": "2 36385  73.9696 160.9132 0141254 336.0399  23.4239 14.72468140850541"
      },
      "geometry": {
        "type": "Point",
        "coordinates": [
          -170.83694988255596,
          59.385271253968845
        ]
      }
    },
    {
      "type": "Feature",
      "properties": {
        "norad_id": 36420,
        "name": "COSMOS 2251 DEB",
        "group": "cosmos-2251-debris",
        "lat": -5.79689985748429,
        "lon": -80.96240803300033,
        "alt_km": 759.727898773509,
        "timestamp": "2025-12-09T21:34:11.806842+00:00",
        "meta_object_name": "COSMOS 2251 DEB",
        "meta_object_id": "1993-036AZT",
        "meta_epoch": "2025-12-09T05:12:09.080064",
        "meta_mean_motion": 14.36895704,
        "meta_eccentricity": 0.001793,
        "meta_inclination": 74.0374,
        "meta_ra_of_asc_node": 281.9559,
        "meta_arg_of_pericenter": 10.5601,
        "meta_mean_anomaly": 57.255,
        "meta_ephemeris_type": 0,
        "meta_classification_type": "U",
        "meta_norad_cat_id": 36420,
        "meta_element_set_no": 999,
        "meta_rev_at_epoch": 84986,
        "meta_bstar": 0.00029505,
        "meta_mean_motion_dot": 8.48e-06,
        "meta_mean_motion_ddot": 0,
        "tle_line1": "1 36420U 93036AZT 25343.21677176  .00000848  00000+0  29505-3 0  9993",
        "tle_line2": "2 36420  74.0374 281.9559 0017930  10.5601  57.2550 14.36895704849860"
      },
      "geometry": {
        "type": "Point",
        "coordinates": [
          -80.96240803300033,
          -5.79689985748429
        ]
      }
    },
    {
      "type": "Feature",
      "properties": {
        "norad_id": 36430,
        "name": "COSMOS 2251 DEB",
        "group": "cosmos-2251-debris",
        "lat": 66.45603516558592,
        "lon": -107.48761964955682,
        "alt_km": 856.4123204672396,
        "timestamp": "2025-12-09T21:34:11.806853+00:00",
        "meta_object_name": "COSMOS 2251 DEB",
        "meta_object_id": "1993-036BAD",
        "meta_epoch": "2025-12-07T15:14:59.696160",
        "meta_mean_motion": 14.27773173,
        "meta_eccentricity": 0.00973352,
        "meta_inclination": 74.0036,
        "meta_ra_of_asc_node": 117.7938,
        "meta_arg_of_pericenter": 268.8676,
        "meta_mean_anomaly": 90.1319,
        "meta_ephemeris_type": 0,
        "meta_classification_type": "U",
        "meta_norad_cat_id": 36430,
        "meta_element_set_no": 999,
        "meta_rev_at_epoch": 64484,
        "meta_bstar": 0.00083938099,
        "meta_mean_motion_dot": 2.154e-05,
        "meta_mean_motion_ddot": 0,
        "tle_line1": "1 36430U 93036BAD 25341.63541315  .00002154  00000+0  83938-3 0  9995",
        "tle_line2": "2 36430  74.0036 117.7938 0097335 268.8676  90.1319 14.27773173644845"
      },
      "geometry": {
        "type": "Point",
        "coordinates": [
          -107.48761964955682,
          66.45603516558592
        ]
      }
    },
    {
      "type": "Feature",
      "properties": {
        "norad_id": 36437,
        "name": "COSMOS 2251 DEB",
        "group": "cosmos-2251-debris",
        "lat": 33.975923590708426,
        "lon": 50.7378891614104,
        "alt_km": 665.9646550537773,
        "timestamp": "2025-12-09T21:34:11.806863+00:00",
        "meta_object_name": "COSMOS 2251 DEB",
        "meta_object_id": "1993-036BAL",
        "meta_epoch": "2025-12-08T11:07:20.893728",
        "meta_mean_motion": 14.70572435,
        "meta_eccentricity": 0.00231803,
        "meta_inclination": 73.9425,
        "meta_ra_of_asc_node": 42.3459,
        "meta_arg_of_pericenter": 273.747,
        "meta_mean_anomaly": 86.105,
        "meta_ephemeris_type": 0,
        "meta_classification_type": "U",
        "meta_norad_cat_id": 36437,
        "meta_element_set_no": 999,
        "meta_rev_at_epoch": 65988,
        "meta_bstar": 0.0019147355,
        "meta_mean_motion_dot": 0.0001167,
        "meta_mean_motion_ddot": 0,
        "tle_line1": "1 36437U 93036BAL 25342.46343627  .00011670  00000+0  19147-2 0  9993",
        "tle_line2": "2 36437  73.9425  42.3459 0023180 273.7470  86.1050 14.70572435659880"
      },
      "geometry": {
        "type": "Point",
        "coordinates": [
          50.7378891614104,
          33.975923590708426
        ]
      }
    },
    {
      "type": "Feature",
      "properties": {
        "norad_id": 36439,
        "name": "COSMOS 2251 DEB",
        "group": "cosmos-2251-debris",
        "lat": 35.485653021996114,
        "lon": -150.57806156545553,
        "alt_km": 1270.0907671022096,
        "timestamp": "2025-12-09T21:34:11.806873+00:00",
        "meta_object_name": "COSMOS 2251 DEB",
        "meta_object_id": "1993-036BAN",
        "meta_epoch": "2025-12-09T11:58:56.463168",
        "meta_mean_motion": 13.47786421,
        "meta_eccentricity": 0.04275897,
        "meta_inclination": 73.9683,
        "meta_ra_of_asc_node": 41.8872,
        "meta_arg_of_pericenter": 14.4212,
        "meta_mean_anomaly": 346.8655,
        "meta_ephemeris_type": 0,
        "meta_classification_type": "U",
        "meta_norad_cat_id": 36439,
        "meta_element_set_no": 999,
        "meta_rev_at_epoch": 58569,
        "meta_bstar": 0.0014152778,
        "meta_mean_motion_dot": 1.503e-05,
        "meta_mean_motion_ddot": 0,
        "tle_line1": "1 36439U 93036BAN 25343.49926462  .00001503  00000+0  14153-2 0  9999",
        "tle_line2": "2 36439  73.9683  41.8872 0427589  14.4212 346.8655 13.47786421585695"
      },
      "geometry": {
        "type": "Point",
        "coordinates": [
          -150.57806156545553,
          35.485653021996114
        ]
      }
    }
  ]
}